[Satellite]
VERSION=1.1
NAME=INTELSAT 10 (IS-10)
NICKNAME=INTELSAT 10 (IS-10)
TLE1=1 26766U 01019A   17186.13344600  .00000120  00000-0  00000-0 0  9995
TLE2=2 26766   1.5548  85.1692 0002462 349.8778 303.7963  1.00272169 59141
